IRIDIUM 112             
1 41925U 17003J   23253.74585161  .00000339  00000+0  11391-3 0  9996
2 41925  86.4013 150.6219 0002190  90.5686 269.5760 14.34216118348477
IRIDIUM 111             
1 41926U 17003K   23253.38433483  .00000288  00000+0  95739-4 0  9998
2 41926  86.4019 150.8210 0002441  82.2719 277.8754 14.34218031348371
IRIDIUM 113             
1 42803U 17039A   23253.43406626  .00000474  00000+0  16235-3 0  9997
2 42803  86.4009  24.5247 0002317  94.8464 265.2996 14.34218915326310
IRIDIUM 123             
1 42804U 17039B   23253.54531130  .00000126  00000+0  37871-4 0  9993
2 42804  86.3940  55.9865 0002316  98.6938 261.4520 14.34218876325096
IRIDIUM 120             
1 42805U 17039C   23253.77656939  .00000463  00000+0  15820-3 0  9997
2 42805  86.4000  24.2952 0002198  91.5052 268.6395 14.34215613326353
IRIDIUM 115             
1 42806U 17039D   23253.41667494  .00003009  00000+0  88786-3 0  9997
2 42806  86.4534  24.4305 0002457  89.8417 270.3065 14.43308371328476
IRIDIUM 118             
1 42807U 17039E   23253.71657385  .00000119  00000+0  35392-4 0  9994
2 42807  86.3941  55.9173 0002087  93.0764 267.0671 14.34218195325120
IRIDIUM 117             
1 42808U 17039F   23253.52628351  .00000129  00000+0  38922-4 0  9998
2 42808  86.3940  55.9637 0002168  91.4820 268.6624 14.34217983325118
